[{"OBJECT_NAME":"STARLINK-3718","OBJECT_ID":"2022-029AW","EPOCH":"2026-03-09T06:50:28.048704","MEAN_MOTION":15.08838789,"ECCENTRICITY":0.00015372,"INCLINATION":53.2183,"RA_OF_ASC_NODE":70.9375,"ARG_OF_PERICENTER":97.8884,"MEAN_ANOMALY":262.2282,"EPHEMERIS_TYPE":0,"CLASSIFICATION_TYPE":"U","NORAD_CAT_ID":52132,"ELEMENT_SET_NO":999,"REV_AT_EPOCH":22087,"BSTAR":-9.72023e-7,"MEAN_MOTION_DOT":-3.03e-6,"MEAN_MOTION_DDOT":0},{"OBJECT_NAME":"FALCON 9 DEB","OBJECT_ID":"2021-041BL","EPOCH":"2026-03-09T15:17:24.182016","MEAN_MOTION":15.12006404,"ECCENTRICITY":0.0011978,"INCLINATION":53.0274,"RA_OF_ASC_NODE":188.0035,"ARG_OF_PERICENTER":181.8726,"MEAN_ANOMALY":178.2223,"EPHEMERIS_TYPE":0,"CLASSIFICATION_TYPE":"U","NORAD_CAT_ID":48837,"ELEMENT_SET_NO":999,"REV_AT_EPOCH":26181,"BSTAR":0.00029601,"MEAN_MOTION_DOT":4.852e-5,"MEAN_MOTION_DDOT":0}]
